NORAD_CAT_ID,OBJECT_NAME,OBJECT_TYPE,EPOCH,MEAN_MOTION,ECCENTRICITY,INCLINATION,RA_OF_ASC_NODE,ARG_OF_PERICENTER,MEAN_ANOMALY,BSTAR,MEAN_MOTION_DOT,MEAN_MOTION_DDOT,TLE_LINE0,TLE_LINE1,TLE_LINE2,SEMIMAJOR_AXIS,PERIOD,APOGEE,PERIGEE,DECAYED
53998.0,STARLINK-5128,PAYLOAD,2023-04-10 20:38:27,15.08844757,0.0001138,53.2163,309.6087,90.137,269.9753,0.00010879,1.444e-05,0.0,0 STARLINK-5128,1 53998U 22125AL  23100.86004238  .00001444  00000-0  10879-3 0  9994,2 53998  53.2163 309.6087 0001138  90.1370 269.9753 15.08844757 28934,6917.866,95.437,540.518,538.944,0.0
53998.0,STARLINK-5128,PAYLOAD,2023-04-10 23:49:13,15.08844303,0.0001129,53.2164,309.0141,89.5921,270.52,9.3982e-05,1.208e-05,0.0,0 STARLINK-5128,1 53998U 22125AL  23100.99252220  .00001208  00000-0  93982-4 0  9999,2 53998  53.2164 309.0141 0001129  89.5921 270.5200 15.08844303 28880,6917.867,95.437,540.513,538.951,0.0
53998.0,STARLINK-5128,PAYLOAD,2023-04-11 20:29:15,15.08835516,0.0001078,53.216,305.1481,87.0273,273.0843,-2.5114e-05,-6.87e-06,0.0,0 STARLINK-5128,1 53998U 22125AL  23101.85364755 -.00000687  00000-0 -25114-4 0  9996,2 53998  53.2160 305.1481 0001078  87.0273 273.0843 15.08835516 29086,6917.894,95.438,540.505,539.013,0.0
53998.0,STARLINK-5128,PAYLOAD,2023-04-12 06:01:34,15.08835361,0.0001072,53.2164,303.3642,87.6037,272.5078,-2.1054e-06,-3.21e-06,0.0,0 STARLINK-5128,1 53998U 22125AL  23102.25109118 -.00000321  00000-0 -21054-5 0  9996,2 53998  53.2164 303.3642 0001072  87.6037 272.5078 15.08835361 29078,6917.895,95.438,540.501,539.018,0.0
53998.0,STARLINK-5128,PAYLOAD,2023-04-13 05:52:21,15.08833568,0.0001342,53.2149,298.904,90.1251,269.9895,8.0244e-05,9.89e-06,0.0,0 STARLINK-5128,1 53998U 22125AL  23103.24469219  .00000989  00000-0  80244-4 0  9990,2 53998  53.2149 298.9040 0001342  90.1251 269.9895 15.08833568 29220,6917.9,95.438,540.693,538.837,0.0
53998.0,STARLINK-5128,PAYLOAD,2023-04-14 05:43:08,15.08839187,0.0002217,53.2095,294.4449,89.4451,270.6795,5.5894e-05,6.01e-06,0.0,0 STARLINK-5128,1 53998U 22125AL  23104.23829303  .00000601  00000-0  55894-4 0  9998,2 53998  53.2095 294.4449 0002217  89.4451 270.6795 15.08839187 29376,6917.883,95.438,541.282,538.214,0.0
53998.0,STARLINK-5128,PAYLOAD,2023-04-15 05:33:55,15.0884634,0.0001883,53.2105,289.9848,80.9443,279.1762,-0.00019418,-3.378e-05,0.0,0 STARLINK-5128,1 53998U 22125AL  23105.23188937 -.00003378  00000-0 -19418-3 0  9997,2 53998  53.2105 289.9848 0001883  80.9443 279.1762 15.08846340 29529,6917.861,95.437,541.029,538.423,0.0
53998.0,STARLINK-5128,PAYLOAD,2023-04-15 21:27:46,15.08834223,0.0001039,53.2148,287.0094,64.6611,295.4489,-4.9358e-05,-1.073e-05,0.0,0 STARLINK-5128,1 53998U 22125AL  23105.89428952 -.00001073  00000-0 -49358-4 0  9990,2 53998  53.2148 287.0094 0001039  64.6611 295.4489 15.08834223 29622,6917.898,95.438,540.482,539.044,0.0
53998.0,STARLINK-5128,PAYLOAD,2023-04-16 05:24:42,15.08832211,8.18e-05,53.2168,285.5221,71.1879,288.9202,9.1822e-06,-1.42e-06,0.0,0 STARLINK-5128,1 53998U 22125AL  23106.22549108 -.00000142  00000-0  91822-5 0  9994,2 53998  53.2168 285.5221 0000818  71.1879 288.9202 15.08832211 29672,6917.904,95.438,540.335,539.203,0.0
53998.0,STARLINK-5128,PAYLOAD,2023-04-16 18:07:46,15.08852196,8.92e-05,53.2162,283.1427,76.136,283.9731,0.00014141,1.964e-05,0.0,0 STARLINK-5128,1 53998U 22125AL  23106.75540361  .00001964  00000-0  14141-3 0  9993,2 53998  53.2162 283.1427 0000892  76.1360 283.9731 15.08852196 29823,6917.843,95.437,540.325,539.091,0.0
53998.0,STARLINK-5128,PAYLOAD,2023-04-16 21:18:33,15.08850271,0.0001025,53.2155,282.5481,71.5668,288.5435,0.00040295,6.133e-05,0.0,0 STARLINK-5128,1 53998U 22125AL  23106.88788714  .00006133  00000-0  40295-3 0  9995,2 53998  53.2155 282.5481 0001025  71.5668 288.5435 15.08850271 29775,6917.849,95.437,540.423,539.005,0.0
53998.0,STARLINK-5128,PAYLOAD,2023-04-17 11:37:02,15.08840561,0.0001099,53.2149,279.8728,54.6902,305.4193,0.00036969,5.601e-05,0.0,0 STARLINK-5128,1 53998U 22125AL  23107.48405545  .00005601  00000-0  36969-3 0  9992,2 53998  53.2149 279.8728 0001099  54.6902 305.4193 15.08840561 29934,6917.879,95.438,540.504,538.983,0.0
53998.0,STARLINK-5128,PAYLOAD,2023-04-17 17:58:34,15.08854362,0.0001051,53.2155,278.6827,62.5941,297.5158,0.00075628,0.00011773,0.0,0 STARLINK-5128,1 53998U 22125AL  23107.74901173  .00011773  00000-0  75628-3 0  9991,2 53998  53.2155 278.6827 0001051  62.5941 297.5158 15.08854362 29977,6917.836,95.437,540.429,538.974,0.0
53998.0,STARLINK-5128,PAYLOAD,2023-04-18 11:27:49,15.08845527,0.000124,53.2158,275.412,64.3213,295.7907,0.0008358,0.00013041,0.0,0 STARLINK-5128,1 53998U 22125AL  23108.47765457  .00013041  00000-0  83580-3 0  9991,2 53998  53.2158 275.4120 0001240  64.3213 295.7907 15.08845527 30015,6917.863,95.437,540.586,538.871,0.0
53998.0,STARLINK-5128,PAYLOAD,2023-04-18 17:49:21,15.08847788,0.0001018,53.216,274.2222,71.8129,288.2974,0.00089781,0.00014033,0.0,0 STARLINK-5128,1 53998U 22125AL  23108.74261440  .00014033  00000-0  89781-3 0  9995,2 53998  53.2160 274.2222 0001018  71.8129 288.2974 15.08847788 30056,6917.857,95.437,540.426,539.017,0.0
53998.0,STARLINK-5128,PAYLOAD,2023-04-19 11:18:36,15.08839944,0.0001188,53.2162,270.9516,59.1469,300.964,0.00071158,0.00011055,0.0,0 STARLINK-5128,1 53998U 22125AL  23109.47125744  .00011055  00000-0  71158-3 0  9992,2 53998  53.2162 270.9516 0001188  59.1469 300.9640 15.08839944 30238,6917.881,95.438,540.567,538.924,0.0
53998.0,STARLINK-5128,PAYLOAD,2023-04-19 17:40:08,15.08860078,0.0001165,53.2156,269.7611,82.593,277.5194,0.0014601,0.00023039,0.0,0 STARLINK-5128,1 53998U 22125AL  23109.73621422  .00023039  00000-0  14601-2 0  9999,2 53998  53.2156 269.7611 0001165  82.5930 277.5194 15.08860078 30203,6917.819,95.436,540.49,538.878,0.0
53998.0,STARLINK-5128,PAYLOAD,2023-04-20 09:34:00,15.08847505,0.0001207,53.2165,266.7925,111.0154,249.0968,0.00061526,9.519e-05,0.0,0 STARLINK-5128,1 53998U 22125AL  23110.39861431  .00009519  00000-0  61526-3 0  9995,2 53998  53.2165 266.7925 0001207 111.0154 249.0968 15.08847505 30305,6917.857,95.437,540.557,538.887,0.0
53998.0,STARLINK-5128,PAYLOAD,2023-04-20 17:30:56,15.08840365,0.0001163,53.2166,265.3032,98.7875,261.3249,0.0001154,1.549e-05,0.0,0 STARLINK-5128,1 53998U 22125AL  23110.72981586  .00001549  00000-0  11540-3 0  9992,2 53998  53.2166 265.3032 0001163  98.7875 261.3249 15.08840365 30421,6917.879,95.438,540.549,538.94,0.0
53998.0,STARLINK-5128,PAYLOAD,2023-04-20 20:41:42,15.08849274,0.0001206,53.2168,264.7073,89.9658,270.1472,0.00040557,6.174e-05,0.0,0 STARLINK-5128,1 53998U 22125AL  23110.86229423  .00006174  00000-0  40557-3 0  9991,2 53998  53.2168 264.7073 0001206  89.9658 270.1472 15.08849274 30378,6917.852,95.437,540.551,538.883,0.0
53998.0,STARLINK-5128,PAYLOAD,2023-04-21 03:03:14,15.08836775,9.58e-05,53.2154,263.5169,98.4774,261.6327,0.00013233,1.819e-05,0.0,0 STARLINK-5128,1 53998U 22125AL  23111.12725647  .00001819  00000-0  13233-3 0  9992,2 53998  53.2154 263.5169 0000958  98.4774 261.6327 15.08836775 30414,6917.89,95.438,540.418,539.093,0.0
53998.0,STARLINK-5128,PAYLOAD,2023-04-21 18:57:06,15.08842874,8.43e-05,53.2149,260.5453,111.8411,248.2671,0.00021382,3.117e-05,0.0,0 STARLINK-5128,1 53998U 22125AL  23111.78965465  .00003117  00000-0  21382-3 0  9995,2 53998  53.2149 260.5453 0000843 111.8411 248.2671 15.08842874 30513,6917.872,95.437,540.32,539.153,0.0
53998.0,STARLINK-5128,PAYLOAD,2023-04-21 22:07:52,15.08857336,7.22e-05,53.2145,259.9487,104.3198,255.7874,0.00040469,6.162e-05,0.0,0 STARLINK-5128,1 53998U 22125AL  23111.92212972  .00006162  00000-0  40469-3 0  9999,2 53998  53.2145 259.9487 0000722 104.3198 255.7874 15.08857336 30532,6917.827,95.436,540.192,539.193,0.0
53998.0,STARLINK-5128,PAYLOAD,2023-04-22 21:58:39,15.08850985,0.0001589,53.2141,255.4863,86.5181,273.5992,0.00033077,4.982e-05,0.0,0 STARLINK-5128,1 53998U 22125AL  23112.91573326  .00004982  00000-0  33077-3 0  9997,2 53998  53.2141 255.4863 0001589  86.5181 273.5992 15.08850985 30758,6917.847,95.437,540.811,538.613,0.0
53998.0,STARLINK-5128,PAYLOAD,2023-04-23 09:06:22,15.08824518,8.94e-05,53.2155,253.4061,82.0014,278.108,-0.00022177,-3.814e-05,0.0,0 STARLINK-5128,1 53998U 22125AL  23113.37942325 -.00003814  00000-0 -22177-3 0  9991,2 53998  53.2155 253.4061 0000894  82.0014 278.1080 15.08824518 30825,6917.928,95.439,540.411,539.174,0.0
53998.0,STARLINK-5128,PAYLOAD,2023-04-24 02:35:36,15.08837533,2.65e-05,53.2149,250.1349,98.5141,261.5881,0.00030195,4.521e-05,0.0,0 STARLINK-5128,1 53998U 22125AL  23114.10805929  .00004521  00000-0  30195-3 0  9994,2 53998  53.2149 250.1349 0000265  98.5141 261.5881 15.08837533 30934,6917.888,95.438,539.936,539.57,0.0
53998.0,STARLINK-5128,PAYLOAD,2023-04-24 08:57:08,15.08891283,5.05e-05,53.2151,248.9447,96.6244,263.4806,0.0021178,0.00033625,0.0,0 STARLINK-5128,1 53998U 22125AL  23114.37301131  .00033625  00000-0  21178-2 0  9996,2 53998  53.2151 248.9447 0000505  96.6244 263.4806 15.08891283 30975,6917.724,95.434,539.938,539.239,0.0
53998.0,STARLINK-5128,PAYLOAD,2023-04-24 13:43:17,15.08922083,0.0001128,53.2147,248.0537,80.0993,280.0127,0.0044152,0.00070846,0.0,0 STARLINK-5128,1 53998U 22125AL  23114.57173053  .00070846  00000-0  44152-2 0  9991,2 53998  53.2147 248.0537 0001128  80.0993 280.0127 15.08922083 30931,6917.63,95.432,540.275,538.714,0.0
53998.0,STARLINK-5128,PAYLOAD,2023-04-25 02:26:22,15.08817113,0.0002951,53.2165,245.6746,79.7395,280.393,-0.0018571,-0.00029707,0.0,0 STARLINK-5128,1 53998U 22125AL  23115.10165489 -.00029707  00000-0 -18571-2 0  9993,2 53998  53.2165 245.6746 0002951  79.7395 280.3930 15.08817113 31081,6917.95,95.439,541.857,537.774,0.0
53998.0,STARLINK-5128,PAYLOAD,2023-04-25 08:47:56,15.08816599,0.0002585,53.2149,244.4855,68.7956,291.3312,0.00057496,8.868e-05,0.0,0 STARLINK-5128,1 53998U 22125AL  23115.36662378  .00008868  00000-0  57496-3 0  9993,2 53998  53.2149 244.4855 0002585  68.7956 291.3312 15.08816599 31055,6917.952,95.439,541.605,538.029,0.0
